OBJECT_NAME,OBJECT_ID,EPOCH,MEAN_MOTION,ECCENTRICITY,INCLINATION,RA_OF_ASC_NODE,ARG_OF_PERICENTER,MEAN_ANOMALY,EPHEMERIS_TYPE,CLASSIFICATION_TYPE,NORAD_CAT_ID,ELEMENT_SET_NO,REV_AT_EPOCH,BSTAR,MEAN_MOTION_DOT,MEAN_MOTION_DDOT
DONGPO 10,2022-167H,2026-05-11T14:36:05.404896,15.33705569,.00040777,97.6921,300.2282,233.0263,127.0606,0,U,54689,999,18975,.20631191E-3,.664E-4,0
JILIN-1 GAOFEN 03D48,2022-167P,2026-05-11T14:58:26.131584,15.34437570,.00053355,97.6854,299.6114,239.3763,120.6953,0,U,54695,999,18978,.21264755E-3,.7009E-4,0
STAR VIBE,2023-001A,2026-05-11T15:17:43.389600,15.41613181,.00045671,97.3193,195.9784,232.9127,127.1703,0,U,55009,999,18659,.21413365E-3,.8928E-4,0
BRO-8,2023-001C,2026-05-11T15:38:33.867168,15.46871529,.00048611,97.3239,196.3691,239.8382,120.2387,0,U,55011,999,18655,.38590672E-3,.19334E-3,0
CONNECTA T1.2,2023-001D,2026-05-11T10:05:41.417664,15.48099769,.00058512,97.3299,201.5308,212.4456,147.6436,0,U,55012,999,18685,.45679553E-3,.23916E-3,0
BIRKELAND,2023-001G,2026-05-11T14:56:45.690720,15.39426006,.00056465,97.3360,199.5146,224.4301,135.6492,0,U,55015,999,18672,.1410778E-3,.5441E-4,0
ION SCV-008,2023-001AU,2026-05-11T12:11:08.784384,15.28114910,.00161135,97.5684,227.2305,138.6376,221.6087,0,U,55051,999,18573,.15819145E-3,.4273E-4,0
ION SCV-007,2023-001BD,2026-05-11T10:12:21.720096,14.77518828,.00137959,97.9024,195.1658,94.6573,265.6213,0,U,55060,999,18082,.41635907E-4,.246E-5,0
HUYGENS,2023-001CN,2026-05-11T14:56:51.941760,15.39428886,.00090332,97.3268,198.7917,204.8910,155.1902,0,U,55093,999,18674,.14486682E-3,.5595E-4,0
SHARJAHSAT-1,2023-001CZ,2026-05-11T14:21:19.861056,15.47724480,.00049565,97.3192,199.8931,220.6406,139.4475,0,U,55104,999,18683,.23684493E-3,.12176E-3,0
HORUS 1,2023-025A,2026-05-11T15:11:24.502272,15.23543679,.00021046,97.3470,206.9924,112.9418,247.2042,0,U,55690,999,17848,.14991147E-3,.3512E-4,0
HORUS 2,2023-032A,2026-05-11T14:27:44.010144,15.23385913,.00024552,97.3541,207.7339,149.3349,210.8032,0,U,55844,999,17591,.15268763E-3,.3562E-4,0
GLOBAL-19,2023-041B,2026-05-11T03:46:03.644832,15.38243996,.00048468,42.0014,57.9284,78.6804,281.4580,0,U,55982,999,17622,.2523146E-3,.947E-4,0
BRO-9,2023-054H,2026-05-11T13:48:00.883872,15.81058778,.00075667,97.2988,47.4170,128.8131,231.3814,0,U,56185,999,17327,.74628728E-3,.147109E-2,0
ION SCV-010,2023-054Q,2026-05-11T10:33:07.002432,15.25870158,.00122467,97.3827,21.4096,342.7921,17.2901,0,U,56192,999,17059,.12011314E-3,.3009E-4,0
TELEOS-2,2023-057C,2026-05-11T11:56:54.517344,14.96385829,.0000863,9.9870,111.3208,262.6132,97.3983,0,U,56310,999,16729,.26132253E-3,.3731E-4,0
SNIPE 4,2023-072B,2026-05-11T14:30:19.723680,15.40906301,.00071517,97.5295,336.4864,98.5805,261.6252,0,U,56744,999,16447,.31129284E-3,.12724E-3,0
SNIPE 2,2023-072C,2026-05-11T14:51:46.194624,15.45011484,.00063077,97.5291,339.3033,122.5941,237.5917,0,U,56745,999,16459,.34944666E-3,.16414E-3,0
2023-072G,2023-072G,2026-05-11T15:21:56.342880,15.48539479,.00055241,97.4951,338.0931,113.5813,246.6018,0,U,56749,999,16480,.34174666E-3,.18128E-3,0
GEISAT PRECURSOR,2023-084C,2026-05-11T15:12:01.910016,15.34134625,.00072703,97.6168,271.4102,112.9552,247.2458,0,U,56934,999,16192,.16986281E-3,.5531E-4,0
BLACKJACK ACES-3,2023-084U,2026-05-11T07:56:23.486496,15.18417596,.00043348,97.6155,266.2598,118.0380,242.1293,0,U,56950,999,16157,.16332778E-3,.3291E-4,0
BLACKJACK ACES-2,2023-084Z,2026-05-11T14:25:18.984288,15.18277972,.00026381,97.6151,266.6172,101.7627,258.3903,0,U,56955,999,16162,.21154491E-3,.4266E-4,0
BLACKJACK ACES-1,2023-084AA,2026-05-11T07:47:38.244480,15.18352865,.00021732,97.6142,266.1184,91.1129,269.0353,0,U,56956,999,11130,.22836621E-3,.4621E-4,0
ION SCV-011,2023-084AB,2026-05-11T09:49:40.253952,15.28477040,.00077612,98.1388,315.2931,156.6271,203.5321,0,U,56957,999,16019,.12919542E-3,.3495E-4,0
GHOST-3,2023-084AC,2026-05-11T08:44:41.919648,15.46675016,.00071706,97.6168,278.0091,73.5981,286.6056,0,U,56958,999,16232,.24661921E-3,.1223E-3,0
TOMORROW-R2,2023-084AG,2026-05-11T08:38:35.200032,15.87907004,.00012802,97.5936,290.9027,305.1680,54.9472,0,U,56962,999,16318,.50047437E-3,.136046E-2,0
AFR-1,2023-084AJ,2026-05-11T15:13:30.495936,15.28232801,.00120157,97.6218,267.4671,106.4033,253.8528,0,U,56964,999,16164,.11640817E-3,.3129E-4,0
METEOR-M2 3,2023-091A,2026-05-11T15:10:30.769248,14.24043561,.00027641,98.6110,187.3534,278.6875,81.3991,0,U,57166,999,14931,.9271439E-5,-.22E-6,0
UMKA 1 (RS40S),2023-091G,2026-05-11T13:43:01.587360,15.20393322,.00114577,97.5076,190.4170,243.3034,116.7028,0,U,57172,999,15844,.17431959E-3,.3733E-4,0
2023-091H,2023-091H,2026-05-11T13:56:03.868512,15.27838113,.00087993,97.5071,194.4958,236.1579,123.8823,0,U,57173,999,15871,.25540589E-3,.6873E-4,0
