DONGPO 10               
1 54689U 22167H   26131.60839589  .00006640  00000+0  20631-3 0  9991
2 54689  97.6921 300.2282 0004077 233.0263 127.0606 15.33705569189758
JILIN-1 GAOFEN 03D48    
1 54695U 22167P   26131.62391356  .00007009  00000+0  21265-3 0  9999
2 54695  97.6854 299.6114 0005335 239.3763 120.6953 15.34437570189789
STAR VIBE               
1 55009U 23001A   26131.63730775  .00008928  00000+0  21413-3 0  9996
2 55009  97.3193 195.9784 0004567 232.9127 127.1703 15.41613181186595
BRO-8                   
1 55011U 23001C   26131.65178087  .00019334  00000+0  38591-3 0  9991
2 55011  97.3239 196.3691 0004861 239.8382 120.2387 15.46871529186552
CONNECTA T1.2           
1 55012U 23001D   26131.42061826  .00023916  00000+0  45680-3 0  9997
2 55012  97.3299 201.5308 0005851 212.4456 147.6436 15.48099769186853
BIRKELAND               
1 55015U 23001G   26131.62275105  .00005441  00000+0  14108-3 0  9993
2 55015  97.3360 199.5146 0005646 224.4301 135.6492 15.39426006186728
ION SCV-008             
1 55051U 23001AU  26131.50774056  .00004273  00000+0  15819-3 0  9991
2 55051  97.5684 227.2305 0016113 138.6376 221.6087 15.28114910185736
ION SCV-007             
1 55060U 23001BD  26131.42525139  .00000246  00000+0  41636-4 0  9991
2 55060  97.9024 195.1658 0013795  94.6573 265.6213 14.77518828180828
HUYGENS                 
1 55093U 23001CN  26131.62282340  .00005595  00000+0  14487-3 0  9998
2 55093  97.3268 198.7917 0009033 204.8910 155.1902 15.39428886186743
SHARJAHSAT-1            
1 55104U 23001CZ  26131.59814654  .00012176  00000+0  23684-3 0  9998
2 55104  97.3192 199.8931 0004956 220.6406 139.4475 15.47724480186833
HORUS 1                 
1 55690U 23025A   26131.63292248  .00003512  00000+0  14991-3 0  9993
2 55690  97.3470 206.9924 0002104 112.9418 247.2042 15.23543679178486
HORUS 2                 
1 55844U 23032A   26131.60259271  .00003562  00000+0  15269-3 0  9992
2 55844  97.3541 207.7339 0002455 149.3349 210.8032 15.23385913175916
GLOBAL-19               
1 55982U 23041B   26131.15698663  .00009470  00000+0  25231-3 0  9991
2 55982  42.0014  57.9284 0004846  78.6804 281.4580 15.38243996176228
BRO-9                   
1 56185U 23054H   26131.57501023  .00147109  00000+0  74629-3 0  9997
2 56185  97.2988  47.4170 0007566 128.8131 231.3814 15.81058778173273
ION SCV-010             
1 56192U 23054Q   26131.43966438  .00003009  00000+0  12011-3 0  9992
2 56192  97.3827  21.4096 0012246 342.7921  17.2901 15.25870158170590
TELEOS-2                
1 56310U 23057C   26131.49785321  .00003731  00000+0  26132-3 0  9994
2 56310   9.9870 111.3208 0000863 262.6132  97.3983 14.96385829167294
SNIPE 4                 
1 56744U 23072B   26131.60439495  .00012724  00000+0  31129-3 0  9997
2 56744  97.5295 336.4864 0007151  98.5805 261.6252 15.40906301164473
SNIPE 2                 
1 56745U 23072C   26131.61928466  .00016414  00000+0  34945-3 0  9999
2 56745  97.5291 339.3033 0006307 122.5941 237.5917 15.45011484164598
2023-072G               
1 56749U 23072G   26131.64023545  .00018128  00000+0  34175-3 0  9999
2 56749  97.4951 338.0931 0005524 113.5813 246.6018 15.48539479164804
GEISAT PRECURSOR        
1 56934U 23084C   26131.63335544  .00005531  00000+0  16986-3 0  9996
2 56934  97.6168 271.4102 0007270 112.9552 247.2458 15.34134625161929
BLACKJACK ACES-3        
1 56950U 23084U   26131.33082739  .00003291  00000+0  16333-3 0  9993
2 56950  97.6155 266.2598 0004334 118.0380 242.1293 15.18417596161573
BLACKJACK ACES-2        
1 56955U 23084Z   26131.60091417  .00004266  00000+0  21154-3 0  9991
2 56955  97.6151 266.6172 0002638 101.7627 258.3903 15.18277972161629
BLACKJACK ACES-1        
1 56956U 23084AA  26131.32474820  .00004621  00000+0  22837-3 0  9998
2 56956  97.6142 266.1184 0002173  91.1129 269.0353 15.18352865111304
ION SCV-011             
1 56957U 23084AB  26131.40949368  .00003495  00000+0  12920-3 0  9992
2 56957  98.1388 315.2931 0007761 156.6271 203.5321 15.28477040160195
GHOST-3                 
1 56958U 23084AC  26131.36437407  .00012230  00000+0  24662-3 0  9997
2 56958  97.6168 278.0091 0007170  73.5981 286.6056 15.46675016162325
TOMORROW-R2             
1 56962U 23084AG  26131.36012963  .00136046  00000+0  50047-3 0  9996
2 56962  97.5936 290.9027 0001280 305.1680  54.9472 15.87907004163183
AFR-1                   
1 56964U 23084AJ  26131.63438074  .00003129  00000+0  11641-3 0  9995
2 56964  97.6218 267.4671 0012015 106.4033 253.8528 15.28232801161647
METEOR-M2 3             
1 57166U 23091A   26131.63230057 -.00000022  00000+0  92714-5 0  9991
2 57166  98.6110 187.3534 0002764 278.6875  81.3991 14.24043561149314
UMKA 1 (RS40S)          
1 57172U 23091G   26131.57154615  .00003733  00000+0  17432-3 0  9999
2 57172  97.5076 190.4170 0011457 243.3034 116.7028 15.20393322158444
2023-091H               
1 57173U 23091H   26131.58060033  .00006873  00000+0  25541-3 0  9999
2 57173  97.5071 194.4958 0008799 236.1579 123.8823 15.27838113158718
